[{"OBJECT_NAME":"STARLINK-31309","OBJECT_ID":"2024-044N","EPOCH":"2026-03-09T12:49:55.507872","MEAN_MOTION":15.2756807,"ECCENTRICITY":1.831e-5,"INCLINATION":43.0014,"RA_OF_ASC_NODE":107.7527,"ARG_OF_PERICENTER":226.0341,"MEAN_ANOMALY":134.0496,"EPHEMERIS_TYPE":0,"CLASSIFICATION_TYPE":"U","NORAD_CAT_ID":59164,"ELEMENT_SET_NO":999,"REV_AT_EPOCH":11357,"BSTAR":8.1150608e-5,"MEAN_MOTION_DOT":1.971e-5,"MEAN_MOTION_DDOT":0},{"OBJECT_NAME":"OKEAN-1","OBJECT_ID":"1988-056A","EPOCH":"2026-03-09T21:19:04.260000","MEAN_MOTION":15.31672069,"ECCENTRICITY":0.00129431,"INCLINATION":82.4671,"RA_OF_ASC_NODE":262.7586,"ARG_OF_PERICENTER":168.0696,"MEAN_ANOMALY":192.0855,"EPHEMERIS_TYPE":0,"CLASSIFICATION_TYPE":"U","NORAD_CAT_ID":19274,"ELEMENT_SET_NO":999,"REV_AT_EPOCH":3511,"BSTAR":0.00038371192,"MEAN_MOTION_DOT":0.00011798,"MEAN_MOTION_DDOT":0}]
